{
  "norad_id": 59128,
  "name": "TRANSPORTER-10 OBJECT AG",
  "history": [
    {
      "epoch": "2026-03-28T21:08:05.375328",
      "apogee_km": 479.921433507202,
      "perigee_km": 465.2961873212962,
      "latitude_deg": 46.2666781749042,
      "longitude_deg": 177.33930592006072,
      "semi_major_axis_km": 6850.745810414249,
      "eccentricity": 0.00106742,
      "inclination_deg": 97.5502,
      "raan_deg": 224.9963,
      "arg_perigee_deg": 158.2988,
      "mean_anomaly_deg": 201.8707,
      "mean_motion_rev_day": 15.31073294
    }
  ]
}